<?xml version='1.0' encoding='utf-8'?>
<q:quakeml xmlns="http://quakeml.org/xmlns/bed/1.2" xmlns:q="http://quakeml.org/xmlns/quakeml/1.2">
    <eventParameters publicID="smi:snsn.se/nordic2qml#20250101">
        <creationInfo>
            <agencyID>UPP</agencyID>
            <author>nordic2qml.py</author>
            <creationTime>2025-04-25T23:31:00.636437Z</creationTime>
        </creationInfo>
        <event publicID="smi:snsn.se/20250101001827.500000.123456">
            <preferredOriginID>smi:snsn.se/Origin#20250101001827.500000.123456</preferredOriginID>
            <preferredMagnitudeID>smi:snsn.se/Origin#20250101001827.500000.123456#netMag.ML</preferredMagnitudeID>
            <type>explosion</type>
            <typeCertainty>suspected</typeCertainty>
            <creationInfo>
                <agencyID>UPP</agencyID>
                <author>nordic2qml.py</author>
                <creationTime>2025-04-25T23:31:00.636437Z</creationTime>
            </creationInfo>
            <origin publicID="smi:snsn.se/Origin#20250101001827.500000.123456">
                <time>
                    <value>2025-01-01T00:18:27.500000Z</value>
                </time>
                <latitude>
                    <value>67.835</value>
                    <uncertainty>0.004</uncertainty>
                </latitude>
                <longitude>
                    <value>20.192</value>
                    <uncertainty>0.008</uncertainty>
                </longitude>
                <depth>
                    <value>0.1</value>
                </depth>
                <depthType>operator assigned</depthType>
                <earthModelID>smi:snsn.se/snsn</earthModelID>
                <quality>
                    <associatedPhaseCount>8</associatedPhaseCount>
                    <usedPhaseCount>8</usedPhaseCount>
                    <associatedStationCount>8</associatedStationCount>
                    <usedStationCount>8</usedStationCount>
                    <standardError>0.1</standardError>
                    <azimuthalGap>110.0</azimuthalGap>
                    <minimumDistance>0.1348982408877595</minimumDistance>
                    <maximumDistance>1.5018670818837225</maximumDistance>
                    <medianDistance>0.7914030132081891</medianDistance>
                </quality>
                <type>hypocenter</type>
                <evaluationMode>manual</evaluationMode>
                <evaluationStatus>final</evaluationStatus>
                <creationInfo>
                    <agencyID>UPP</agencyID>
                    <author>nordic2qml.py</author>
                    <creationTime>2025-04-25T23:31:00.636437Z</creationTime>
                </creationInfo>
                <originUncertainty>
                    <preferredDescription>uncertainty ellipse</preferredDescription>
                    <minHorizontalUncertainty>444.7797065784</minHorizontalUncertainty>
                    <maxHorizontalUncertainty>889.5594131568</maxHorizontalUncertainty>
                    <azimuthMaxHorizontalUncertainty>90.0</azimuthMaxHorizontalUncertainty>
                </originUncertainty>
                <arrival publicID="smi:snsn.se/20250101001827.500000.123456#Arrival#UPP.KUA..HHZ#P">
                    <pickID>smi:snsn.se/20250101.001830.26-UPP.KUA..HHZ</pickID>
                    <phase>P</phase>
                    <azimuth>25.0</azimuth>
                    <distance>0.1348982408877595</distance>
                    <timeResidual>-0.0</timeResidual>
                    <timeWeight>78.0</timeWeight>
                    <earthModelID>smi:snsn.se/snsn</earthModelID>
                    <creationInfo>
                        <agencyID>UPP</agencyID>
                        <author>nordic2qml.py</author>
                        <creationTime>2025-04-25T23:31:00.636437Z</creationTime>
                    </creationInfo>
                </arrival>
                <arrival publicID="smi:snsn.se/20250101001827.500000.123456#Arrival#UPP.RATU..HHZ#P">
                    <pickID>smi:snsn.se/20250101.001832.06-UPP.RATU..HHZ</pickID>
                    <phase>P</phase>
                    <azimuth>268.0</azimuth>
                    <distance>0.22483040147959918</distance>
                    <timeResidual>0.0</timeResidual>
                    <timeWeight>66.0</timeWeight>
                    <earthModelID>smi:snsn.se/snsn</earthModelID>
                    <creationInfo>
                        <agencyID>UPP</agencyID>
                        <author>nordic2qml.py</author>
                        <creationTime>2025-04-25T23:31:00.636437Z</creationTime>
                    </creationInfo>
                </arrival>
                <arrival publicID="smi:snsn.se/20250101001827.500000.123456#Arrival#UPP.NIKU..HHZ#P">
                    <pickID>smi:snsn.se/20250101.001836.01-UPP.NIKU..HHZ</pickID>
                    <phase>P</phase>
                    <azimuth>275.0</azimuth>
                    <distance>0.4406675869000144</distance>
                    <timeResidual>0.1</timeResidual>
                    <timeWeight>48.0</timeWeight>
                    <earthModelID>smi:snsn.se/snsn</earthModelID>
                    <creationInfo>
                        <agencyID>UPP</agencyID>
                        <author>nordic2qml.py</author>
                        <creationTime>2025-04-25T23:31:00.636437Z</creationTime>
                    </creationInfo>
                </arrival>
                <arrival publicID="smi:snsn.se/20250101001827.500000.123456#Arrival#UPP.LANU..HHZ#P">
                    <pickID>smi:snsn.se/20250101.001841.08-UPP.LANU..HHZ</pickID>
                    <phase>P</phase>
                    <azimuth>72.0</azimuth>
                    <distance>0.7104640686755334</distance>
                    <timeResidual>0.1</timeResidual>
                    <timeWeight>34.0</timeWeight>
                    <earthModelID>smi:snsn.se/snsn</earthModelID>
                    <creationInfo>
                        <agencyID>UPP</agencyID>
                        <author>nordic2qml.py</author>
                        <creationTime>2025-04-25T23:31:00.636437Z</creationTime>
                    </creationInfo>
                </arrival>
                <arrival publicID="smi:snsn.se/20250101001827.500000.123456#Arrival#UPP.MASU..HHZ#P">
                    <pickID>smi:snsn.se/20250101.001842.35-UPP.MASU..HHZ</pickID>
                    <phase>P</phase>
                    <azimuth>118.0</azimuth>
                    <distance>0.7914030132081891</distance>
                    <timeResidual>0.0</timeResidual>
                    <timeWeight>31.0</timeWeight>
                    <earthModelID>smi:snsn.se/snsn</earthModelID>
                    <creationInfo>
                        <agencyID>UPP</agencyID>
                        <author>nordic2qml.py</author>
                        <creationTime>2025-04-25T23:31:00.636437Z</creationTime>
                    </creationInfo>
                </arrival>
                <arrival publicID="smi:snsn.se/20250101001827.500000.123456#Arrival#UPP.SALU..HHZ#P">
                    <pickID>smi:snsn.se/20250101.001842.29-UPP.SALU..HHZ</pickID>
                    <phase>P</phase>
                    <azimuth>236.0</azimuth>
                    <distance>0.7914030132081891</distance>
                    <timeResidual>-0.1</timeResidual>
                    <timeWeight>31.0</timeWeight>
                    <earthModelID>smi:snsn.se/snsn</earthModelID>
                    <creationInfo>
                        <agencyID>UPP</agencyID>
                        <author>nordic2qml.py</author>
                        <creationTime>2025-04-25T23:31:00.636437Z</creationTime>
                    </creationInfo>
                </arrival>
                <arrival publicID="smi:snsn.se/20250101001827.500000.123456#Arrival#UPP.PAJU..HHZ#P">
                    <pickID>smi:snsn.se/20250101.001852.86-UPP.PAJU..HHZ</pickID>
                    <phase>P</phase>
                    <azimuth>124.0</azimuth>
                    <distance>1.3939484891735148</distance>
                    <timeResidual>-0.4</timeResidual>
                    <timeWeight>18.0</timeWeight>
                    <earthModelID>smi:snsn.se/snsn</earthModelID>
                    <creationInfo>
                        <agencyID>UPP</agencyID>
                        <author>nordic2qml.py</author>
                        <creationTime>2025-04-25T23:31:00.636437Z</creationTime>
                    </creationInfo>
                </arrival>
                <arrival publicID="smi:snsn.se/20250101001827.500000.123456#Arrival#UPP.ERTU..HHZ#P">
                    <pickID>smi:snsn.se/20250101.001855.09-UPP.ERTU..HHZ</pickID>
                    <phase>P</phase>
                    <azimuth>148.0</azimuth>
                    <distance>1.5018670818837225</distance>
                    <timeResidual>-0.2</timeResidual>
                    <timeWeight>7.0</timeWeight>
                    <earthModelID>smi:snsn.se/snsn</earthModelID>
                    <creationInfo>
                        <agencyID>UPP</agencyID>
                        <author>nordic2qml.py</author>
                        <creationTime>2025-04-25T23:31:00.636437Z</creationTime>
                    </creationInfo>
                </arrival>
            </origin>
            <magnitude publicID="smi:snsn.se/Origin#20250101001827.500000.123456#netMag.ML">
                <mag>
                    <value>1.1</value>
                </mag>
                <type>ML</type>
                <originID>smi:snsn.se/Origin#20250101001827.500000.123456</originID>
                <evaluationMode>manual</evaluationMode>
                <evaluationStatus>final</evaluationStatus>
                <creationInfo>
                    <agencyID>UPP</agencyID>
                    <author>nordic2qml.py</author>
                    <creationTime>2025-04-25T23:31:00.636437Z</creationTime>
                </creationInfo>
            </magnitude>
            <pick publicID="smi:snsn.se/20250101.001830.26-UPP.KUA..HHZ">
                <time>
                    <value>2025-01-01T00:18:30.260000Z</value>
                </time>
                <waveformID networkCode="UPP" stationCode="KUA" channelCode="HHZ"></waveformID>
                <phaseHint>P</phaseHint>
                <evaluationMode>manual</evaluationMode>
                <evaluationStatus>final</evaluationStatus>
                <creationInfo>
                    <agencyID>UPP</agencyID>
                    <author>nordic2qml.py</author>
                    <creationTime>2025-04-25T23:31:00.636437Z</creationTime>
                </creationInfo>
            </pick>
            <pick publicID="smi:snsn.se/20250101.001832.06-UPP.RATU..HHZ">
                <time>
                    <value>2025-01-01T00:18:32.060000Z</value>
                </time>
                <waveformID networkCode="UPP" stationCode="RATU" channelCode="HHZ"></waveformID>
                <phaseHint>P</phaseHint>
                <evaluationMode>manual</evaluationMode>
                <evaluationStatus>final</evaluationStatus>
                <creationInfo>
                    <agencyID>UPP</agencyID>
                    <author>nordic2qml.py</author>
                    <creationTime>2025-04-25T23:31:00.636437Z</creationTime>
                </creationInfo>
            </pick>
            <pick publicID="smi:snsn.se/20250101.001836.01-UPP.NIKU..HHZ">
                <time>
                    <value>2025-01-01T00:18:36.010000Z</value>
                </time>
                <waveformID networkCode="UPP" stationCode="NIKU" channelCode="HHZ"></waveformID>
                <phaseHint>P</phaseHint>
                <evaluationMode>manual</evaluationMode>
                <evaluationStatus>final</evaluationStatus>
                <creationInfo>
                    <agencyID>UPP</agencyID>
                    <author>nordic2qml.py</author>
                    <creationTime>2025-04-25T23:31:00.636437Z</creationTime>
                </creationInfo>
            </pick>
            <pick publicID="smi:snsn.se/20250101.001841.08-UPP.LANU..HHZ">
                <time>
                    <value>2025-01-01T00:18:41.080000Z</value>
                </time>
                <waveformID networkCode="UPP" stationCode="LANU" channelCode="HHZ"></waveformID>
                <phaseHint>P</phaseHint>
                <evaluationMode>manual</evaluationMode>
                <evaluationStatus>final</evaluationStatus>
                <creationInfo>
                    <agencyID>UPP</agencyID>
                    <author>nordic2qml.py</author>
                    <creationTime>2025-04-25T23:31:00.636437Z</creationTime>
                </creationInfo>
            </pick>
            <pick publicID="smi:snsn.se/20250101.001842.35-UPP.MASU..HHZ">
                <time>
                    <value>2025-01-01T00:18:42.350000Z</value>
                </time>
                <waveformID networkCode="UPP" stationCode="MASU" channelCode="HHZ"></waveformID>
                <phaseHint>P</phaseHint>
                <evaluationMode>manual</evaluationMode>
                <evaluationStatus>final</evaluationStatus>
                <creationInfo>
                    <agencyID>UPP</agencyID>
                    <author>nordic2qml.py</author>
                    <creationTime>2025-04-25T23:31:00.636437Z</creationTime>
                </creationInfo>
            </pick>
            <pick publicID="smi:snsn.se/20250101.001842.29-UPP.SALU..HHZ">
                <time>
                    <value>2025-01-01T00:18:42.290000Z</value>
                </time>
                <waveformID networkCode="UPP" stationCode="SALU" channelCode="HHZ"></waveformID>
                <phaseHint>P</phaseHint>
                <evaluationMode>manual</evaluationMode>
                <evaluationStatus>final</evaluationStatus>
                <creationInfo>
                    <agencyID>UPP</agencyID>
                    <author>nordic2qml.py</author>
                    <creationTime>2025-04-25T23:31:00.636437Z</creationTime>
                </creationInfo>
            </pick>
            <pick publicID="smi:snsn.se/20250101.001852.86-UPP.PAJU..HHZ">
                <time>
                    <value>2025-01-01T00:18:52.860000Z</value>
                </time>
                <waveformID networkCode="UPP" stationCode="PAJU" channelCode="HHZ"></waveformID>
                <phaseHint>P</phaseHint>
                <evaluationMode>manual</evaluationMode>
                <evaluationStatus>final</evaluationStatus>
                <creationInfo>
                    <agencyID>UPP</agencyID>
                    <author>nordic2qml.py</author>
                    <creationTime>2025-04-25T23:31:00.636437Z</creationTime>
                </creationInfo>
            </pick>
            <pick publicID="smi:snsn.se/20250101.001855.09-UPP.ERTU..HHZ">
                <time>
                    <value>2025-01-01T00:18:55.090000Z</value>
                </time>
                <waveformID networkCode="UPP" stationCode="ERTU" channelCode="HHZ"></waveformID>
                <phaseHint>P</phaseHint>
                <evaluationMode>manual</evaluationMode>
                <evaluationStatus>final</evaluationStatus>
                <creationInfo>
                    <agencyID>UPP</agencyID>
                    <author>nordic2qml.py</author>
                    <creationTime>2025-04-25T23:31:00.636437Z</creationTime>
                </creationInfo>
            </pick>
        </event>
        <event publicID="smi:snsn.se/20250101001912.000000.123456">
            <preferredOriginID>smi:snsn.se/Origin#20250101001912.000000.123456</preferredOriginID>
            <preferredMagnitudeID>smi:snsn.se/Origin#20250101001912.000000.123456#netMag.ML</preferredMagnitudeID>
            <type>explosion</type>
            <typeCertainty>suspected</typeCertainty>
            <creationInfo>
                <agencyID>UPP</agencyID>
                <author>nordic2qml.py</author>
                <creationTime>2025-04-25T23:31:00.636437Z</creationTime>
            </creationInfo>
            <origin publicID="smi:snsn.se/Origin#20250101001912.000000.123456">
                <time>
                    <value>2025-01-01T00:19:12.000000Z</value>
                    <uncertainty>0.4</uncertainty>
                </time>
                <latitude>
                    <value>67.83</value>
                    <uncertainty>0.005</uncertainty>
                </latitude>
                <longitude>
                    <value>20.202</value>
                    <uncertainty>0.008</uncertainty>
                </longitude>
                <depth>
                    <value>0.1</value>
                    <uncertainty>2.4</uncertainty>
                </depth>
                <earthModelID>smi:snsn.se/snsn</earthModelID>
                <quality>
                    <associatedPhaseCount>8</associatedPhaseCount>
                    <usedPhaseCount>8</usedPhaseCount>
                    <associatedStationCount>6</associatedStationCount>
                    <usedStationCount>6</usedStationCount>
                    <standardError>0.1</standardError>
                    <azimuthalGap>121.0</azimuthalGap>
                    <minimumDistance>0.1348982408877595</minimumDistance>
                    <maximumDistance>1.4928738658245384</maximumDistance>
                    <medianDistance>0.4406675869000144</medianDistance>
                </quality>
                <type>hypocenter</type>
                <evaluationMode>manual</evaluationMode>
                <evaluationStatus>final</evaluationStatus>
                <creationInfo>
                    <agencyID>UPP</agencyID>
                    <author>nordic2qml.py</author>
                    <creationTime>2025-04-25T23:31:00.636437Z</creationTime>
                </creationInfo>
                <originUncertainty>
                    <preferredDescription>uncertainty ellipse</preferredDescription>
                    <minHorizontalUncertainty>555.974633223</minHorizontalUncertainty>
                    <maxHorizontalUncertainty>889.5594131568</maxHorizontalUncertainty>
                    <azimuthMaxHorizontalUncertainty>90.0</azimuthMaxHorizontalUncertainty>
                </originUncertainty>
                <arrival publicID="smi:snsn.se/20250101001912.000000.123456#Arrival#UPP.KUA..HHZ#P">
                    <pickID>smi:snsn.se/20250101.001914.86-UPP.KUA..HHZ</pickID>
                    <phase>P</phase>
                    <azimuth>22.0</azimuth>
                    <distance>0.1348982408877595</distance>
                    <timeResidual>-0.0</timeResidual>
                    <timeWeight>78.0</timeWeight>
                    <earthModelID>smi:snsn.se/snsn</earthModelID>
                    <creationInfo>
                        <agencyID>UPP</agencyID>
                        <author>nordic2qml.py</author>
                        <creationTime>2025-04-25T23:31:00.636437Z</creationTime>
                    </creationInfo>
                </arrival>
                <arrival publicID="smi:snsn.se/20250101001912.000000.123456#Arrival#UPP.KUA..HHH#S">
                    <pickID>smi:snsn.se/20250101.001917.08-UPP.KUA..HHH</pickID>
                    <phase>S</phase>
                    <azimuth>22.0</azimuth>
                    <distance>0.1348982408877595</distance>
                    <timeResidual>0.2</timeResidual>
                    <timeWeight>7.0</timeWeight>
                    <earthModelID>smi:snsn.se/snsn</earthModelID>
                    <creationInfo>
                        <agencyID>UPP</agencyID>
                        <author>nordic2qml.py</author>
                        <creationTime>2025-04-25T23:31:00.636437Z</creationTime>
                    </creationInfo>
                </arrival>
